     2.10           N: GPS NAV DATA                         RINEX VERSION / TYPE
teqc  2013Mar15     gpsops              20150109 00:10:49UTCPGM / RUN BY / DATE
Linux 2.4.21-27.ELsmp|Opteron|gcc -static|Linux x86_64|=+   COMMENT
ABPO                                    MARKER NAME         COMMENT
33302M001                               MARKER NUMBER       COMMENT
4097216.6805 4429119.0287 -2065771.3676                     COMMENT
                                                            COMMENT
This data is provided as a public service by NASA/JPL.      COMMENT
No warranty is expressed or implied regarding suitability   COMMENT
for use.  For further information, contact:                 COMMENT
Dave Stowers, NASA/JPL m/s 238-600                          COMMENT
4800 Oak Grove Drive, Pasadena CA 91109 USA                 COMMENT
                                                            END OF HEADER
28 15  1  8 20  0  0.0 4.110638983548D-04 2.614797267597D-12 0.000000000000D+00
    1.240000000000D+02 7.143750000000D+01 3.906234138903D-09-2.561226221627D+00
    3.635883331299D-06 1.975946780294D-02 3.756955265999D-06 5.153686870575D+03
    4.176000000000D+05 2.328306436539D-07-1.455142469256D+00-1.676380634308D-08
    9.879415457880D-01 3.201250000000D+02-1.682392640601D+00-7.656390347961D-09
    3.328710082708D-10 0.000000000000D+00 1.826000000000D+03 0.000000000000D+00
    2.800000000000D+00 0.000000000000D+00-1.117587089539D-08 1.240000000000D+02
    4.104000000000D+05 4.000000000000D+00
30 15  1  8 19 59 44.0-8.639134466648D-05-2.273736754432D-13 0.000000000000D+00
    2.600000000000D+01 5.412500000000D+01 4.313036798152D-09 5.748576676436D-02
    2.643093466759D-06 9.743749396876D-04 1.109018921852D-05 5.153628364563D+03
    4.175840000000D+05-1.117587089539D-08-2.494617013075D+00-2.235174179077D-08
    9.575489194474D-01 1.616250000000D+02 3.120703606837D+00-7.926401595014D-09
   -2.292952653539D-10 0.000000000000D+00 1.826000000000D+03 0.000000000000D+00
    2.000000000000D+00 0.000000000000D+00 3.259629011154D-09 2.600000000000D+01
    4.104000000000D+05 4.000000000000D+00
 7 15  1  8 20  0  0.0 4.297569394112D-04 3.410605131648D-12 0.000000000000D+00
    2.300000000000D+01 5.084375000000D+01 4.061954911012D-09 1.668326011789D-01
    2.576038241386D-06 7.964996271767D-03 1.075677573681D-05 5.153747264862D+03
    4.176000000000D+05 6.891787052155D-08-2.545889237180D+00 5.401670932770D-08
    9.718882800765D-01 1.752812500000D+02-2.752316267694D+00-7.884614140113D-09
   -2.771544017362D-10 0.000000000000D+00 1.826000000000D+03 0.000000000000D+00
    2.000000000000D+00 0.000000000000D+00-1.117587089539D-08 2.300000000000D+01
    4.106100000000D+05 4.000000000000D+00
13 15  1  8 20  0  0.0-7.693376392126D-05-3.410605131648D-12 0.000000000000D+00
    1.400000000000D+01-1.684375000000D+01 4.484115352832D-09 7.764934761386D-01
   -9.573996067047D-07 5.853270064108D-03 7.010996341705D-06 5.155879714966D+03
    4.176000000000D+05 1.303851604462D-08 2.775390238189D+00-1.024454832077D-07
    9.755069322936D-01 2.516562500000D+02 2.195974664942D+00-8.003547665600D-09
   -4.346609625166D-10 0.000000000000D+00 1.826000000000D+03 0.000000000000D+00
    2.000000000000D+00 0.000000000000D+00-1.117587089539D-08 1.400000000000D+01
    4.134900000000D+05 4.000000000000D+00
15 15  1  8 19 59 44.0-2.251681871712D-04-2.273736754432D-12 0.000000000000D+00
    1.000000000000D+01-1.837500000000D+01 5.519872782000D-09 2.084136156271D+00
   -8.866190910339D-07 7.001529564150D-03 6.023794412613D-06 5.153570095062D+03
    4.175840000000D+05-1.527369022369D-07 2.622278711405D+00 8.754432201385D-08
    9.345025425133D-01 2.523750000000D+02 3.538933451469D-01-8.494282392385D-09
   -3.814444601214D-10 0.000000000000D+00 1.826000000000D+03 0.000000000000D+00
    2.000000000000D+00 0.000000000000D+00-1.024454832077D-08 1.000000000000D+01
    4.174800000000D+05 4.000000000000D+00
 2 15  1  8 22  0  0.0 5.407133139670D-04 2.273736754432D-12 0.000000000000D+00
    2.300000000000D+01-6.887500000000D+01 4.564475843026D-09 2.404767753327D+00
   -3.518536686897D-06 1.415949536022D-02 1.173093914986D-05 5.153754590988D+03
    4.248000000000D+05-9.685754776001D-08 5.426795161401D-01-2.998858690262D-07
    9.405375755195D-01 1.395000000000D+02-2.344402966708D+00-7.864970464732D-09
    1.932223342001D-10 0.000000000000D+00 1.826000000000D+03 0.000000000000D+00
    2.000000000000D+00 0.000000000000D+00-2.048909664154D-08 2.300000000000D+01
    4.176000000000D+05 4.000000000000D+00
 5 15  1  8 22  0  0.0-2.954462543130D-04 5.002220859751D-12 0.000000000000D+00
    3.000000000000D+00 3.628125000000D+01 5.104855494865D-09-1.555629892263D+00
    1.713633537292D-06 4.052836797200D-03 6.867572665215D-06 5.153746379852D+03
    4.248000000000D+05 6.146728992462D-08 1.612517325533D+00-4.284083843231D-08
    9.462539074334D-01 2.348125000000D+02 4.202896918041D-01-8.289631010691D-09
    5.039495629507D-10 0.000000000000D+00 1.826000000000D+03 0.000000000000D+00
    2.000000000000D+00 0.000000000000D+00-1.071020960808D-08 3.000000000000D+00
    4.176000000000D+05 4.000000000000D+00
 6 15  1  8 22  0  0.0 4.637334495783D-05 9.890754881781D-12 0.000000000000D+00
    8.000000000000D+01-5.631250000000D+01 4.137315192927D-09-1.694823596800D+00
   -2.840533852577D-06 4.799497546628D-04 1.165643334389D-05 5.153681350708D+03
    4.248000000000D+05 1.303851604462D-08 5.686909924911D-01 5.587935447693D-09
    9.618383488622D-01 1.539375000000D+02 2.368360792808D+00-7.789610182817D-09
    1.850077063136D-10 0.000000000000D+00 1.826000000000D+03 0.000000000000D+00
    2.000000000000D+00 0.000000000000D+00 4.656612873077D-09 8.000000000000D+01
    4.176000000000D+05 4.000000000000D+00
 7 15  1  8 22  0  0.0 4.297816194594D-04 3.410605131648D-12 0.000000000000D+00
    6.700000000000D+01 4.921875000000D+01 4.140529612535D-09 1.217040974322D+00
    2.732500433922D-06 7.964662974700D-03 1.063942909241D-05 5.153746046066D+03
    4.248000000000D+05 2.980232238770D-08-2.545945777501D+00 9.685754776001D-08
    9.718862422316D-01 1.809062500000D+02-2.752391739638D+00-7.861041729656D-09
   -2.910835533698D-10 0.000000000000D+00 1.826000000000D+03 0.000000000000D+00
    2.000000000000D+00 0.000000000000D+00-1.117587089539D-08 6.700000000000D+01
    4.176000000000D+05 4.000000000000D+00
 9 15  1  8 22  0  0.0-4.951609298587D-05-1.091393642128D-11 0.000000000000D+00
    7.200000000000D+01-2.071875000000D+01 4.956635035173D-09-2.846099634537D+00
   -1.037493348122D-06 2.674802672118D-04 6.396323442459D-06 5.153669340134D+03
    4.248000000000D+05-3.166496753693D-08 2.662416123267D+00 1.117587089539D-08
    9.586018357171D-01 2.571875000000D+02 2.364704021334D+00-8.199270103940D-09
   -3.453715289676D-10 0.000000000000D+00 1.826000000000D+03 0.000000000000D+00
    2.000000000000D+00 0.000000000000D+00 4.656612873077D-10 7.200000000000D+01
    4.176000000000D+05 4.000000000000D+00
10 15  1  8 22  0  0.0-1.579280942678D-04-1.705302565824D-12 0.000000000000D+00
    7.200000000000D+01 4.118750000000D+01 5.260576266974D-09-1.220294874248D+00
    2.365559339523D-06 1.450443360955D-02 6.446614861488D-06 5.153645359039D+03
    4.248000000000D+05 3.408640623093D-07 1.628442939939D+00 1.844018697739D-07
    9.410440567765D-01 2.409375000000D+02 9.147858841611D-01-8.387849387595D-09
    4.450185368083D-10 0.000000000000D+00 1.826000000000D+03 0.000000000000D+00
    2.800000000000D+00 0.000000000000D+00-3.259629011154D-09 7.200000000000D+01
    4.176000000000D+05 4.000000000000D+00
13 15  1  8 22  0  0.0-7.695797830820D-05-3.410605131648D-12 0.000000000000D+00
    1.500000000000D+01-1.996875000000D+01 4.439470636057D-09 1.825439700616D+00
   -1.091510057449D-06 5.853081936948D-03 7.161870598793D-06 5.155878416061D+03
    4.248000000000D+05 9.499490261078D-08 2.775333452098D+00 2.048909664154D-08
    9.755042639310D-01 2.479062500000D+02 2.195861770091D+00-7.866041937935D-09
   -4.732339978098D-10 0.000000000000D+00 1.826000000000D+03 0.000000000000D+00
    2.000000000000D+00 0.000000000000D+00-1.117587089539D-08 1.500000000000D+01
    4.176000000000D+05 4.000000000000D+00
15 15  1  8 21 59 44.0-2.251840196550D-04-2.273736754432D-12 0.000000000000D+00
    3.000000000000D+01-1.831250000000D+01 5.488442901391D-09 3.134400857611D+00
   -9.685754776001D-07 7.001769379713D-03 6.051734089851D-06 5.153569614410D+03
    4.247840000000D+05-1.005828380585D-07 2.622217801348D+00-4.656612873077D-08
    9.345003964125D-01 2.505000000000D+02 3.538801905875D-01-8.391063807203D-09
   -3.453715289676D-10 0.000000000000D+00 1.826000000000D+03 0.000000000000D+00
    2.000000000000D+00 0.000000000000D+00-1.024454832077D-08 3.000000000000D+01
    4.176000000000D+05 4.000000000000D+00
17 15  1  8 22  0  0.0-1.488560810685D-04-2.160049916711D-12 0.000000000000D+00
    1.200000000000D+01-9.484375000000D+01 4.291250176366D-09-2.293567964929D+00
   -4.831701517105D-06 9.965952718630D-03 4.492700099945D-06 5.153698972702D+03
    4.248000000000D+05 8.009374141693D-08-4.317589402872D-01-6.891787052155D-08
    9.712272810232D-01 2.976250000000D+02-2.056274577164D+00-7.977832308738D-09
   -1.703642392115D-10 0.000000000000D+00 1.826000000000D+03 0.000000000000D+00
    2.000000000000D+00 0.000000000000D+00-1.071020960808D-08 1.200000000000D+01
    4.176000000000D+05 4.000000000000D+00
30 15  1  8 22  0  0.0-8.639274165034D-05-2.273736754432D-13 0.000000000000D+00
    2.700000000000D+01 5.696875000000D+01 4.366253300547D-09 1.109860446554D+00
    2.985820174217D-06 9.750731987879D-04 1.075118780136D-05 5.153629621506D+03
    4.248000000000D+05 2.793967723846D-08-2.494674496978D+00-6.332993507385D-08
    9.575471990558D-01 1.671250000000D+02 3.120869399343D+00-7.964617472573D-09
   -2.000083311498D-10 0.000000000000D+00 1.826000000000D+03 0.000000000000D+00
    2.000000000000D+00 0.000000000000D+00 3.259629011154D-09 2.700000000000D+01
    4.176000000000D+05 4.000000000000D+00
